GPS BIIF-4              
1 39166U 13023A   26116.33094632 -.00000048  00000+0  00000+0 0  9991
2 39166  54.5462 271.0846 0141890  50.6724 310.5447  2.00563766 94842
INSAT-3D                
1 39216U 13038B   26116.80488306 -.00000349  00000+0  00000+0 0  9994
2 39216   1.7951  83.1552 0001492 282.3894 268.5399  1.00271959 46569
GPS BIIF-5              
1 39533U 14008A   26115.83306423  .00000051  00000+0  00000+0 0  9994
2 39533  53.6445 151.4553 0083783 230.1189 129.2056  2.00556415 88637
LUCH 5V                 
1 39727U 14023A   26116.89264284 -.00000276  00000+0  00000+0 0  9991
2 39727   5.0093  70.2471 0002232 339.1970 221.5602  1.00271833 43841
GPS BIIF-6              
1 39741U 14026A   26116.10890750 -.00000078  00000+0  00000+0 0  9997
2 39741  56.5221 333.5452 0038948 326.6709  33.1214  2.00564801 87495
GPS BIIF-7              
1 40105U 14045A   26116.19938925  .00000031  00000+0  00000+0 0  9998
2 40105  55.3199  90.5347 0031664 119.1386 241.1664  2.00554931 85030
GSAT0201 (GALILEO 5)    
1 40128U 14050A   26116.13529481 -.00000064  00000+0  00000+0 0  9993
2 40128  48.9332 275.5670 1666333 177.3572 183.6448  1.85519973 77352
GSAT0202 (GALILEO 6)    
1 40129U 14050B   26112.61814241 -.00000026  00000+0  00000+0 0  9992
2 40129  48.9541 274.7956 1666851 177.9520 182.8300  1.85520499 79453
GPS BIIF-8              
1 40294U 14068A   26116.07340919 -.00000098  00000+0  00000+0 0  9993
2 40294  56.9539  32.9628 0065259  68.8513 291.8470  2.00572934 84168
GLONASS-K 2             
1 40315U 14075A   26116.21293611 -.00000010  00000+0  00000+0 0  9991
2 40315  63.6140 192.1706 0021813 209.7479 150.1779  2.13101302 88744
GPS BIIF-9              
1 40534U 15013A   26115.70924992 -.00000039  00000+0  00000+0 0  9994
2 40534  53.1744 206.3479 0108874  39.9788 320.8435  2.00554458 80775
GSAT0203 (GALILEO 7)    
1 40544U 15017A   26111.90090206 -.00000083  00000+0  00000+0 0  9998
2 40544  56.8042 343.1309 0002546 315.4442  44.5780  1.70475713 68240
GSAT0204 (GALILEO 8)    
1 40545U 15017B   26115.08949468 -.00000090  00000+0  00000+0 0  9993
2 40545  56.8095 343.0621 0001552 296.0698  63.9535  1.70475480 31343
GPS BIIF-10             
1 40730U 15033A   26115.37018511 -.00000039  00000+0  00000+0 0  9998
2 40730  54.0255 269.2625 0115006  29.8840 330.7367  2.00558940 78932
METEOSAT-11 (MSG-4)     
1 40732U 15034A   26116.85237659  .00000054  00000+0  00000+0 0  9997
2 40732   3.0733  71.3752 0001594 344.5956 115.3076  1.00264149  6707
GSAT0205 (GALILEO 9)    
1 40889U 15045A   26115.63255192 -.00000038  00000+0  00000+0 0  9992
2 40889  54.9613 223.1764 0005159 266.9978  92.9342  1.67410754 66085
GSAT0206 (GALILEO 10)   
1 40890U 15045B   26115.66468946 -.00000038  00000+0  00000+0 0  9990
2 40890  54.9612 223.0540 0002188  38.1287 321.8788  1.70473961 66146
