[{"OBJECT_NAME":"GPS BIIF-4","OBJECT_ID":"2013-023A","EPOCH":"2026-04-26T07:56:33.762048","MEAN_MOTION":2.00563766,"ECCENTRICITY":0.014189,"INCLINATION":54.5462,"RA_OF_ASC_NODE":271.0846,"ARG_OF_PERICENTER":50.6724,"MEAN_ANOMALY":310.5447,"EPHEMERIS_TYPE":0,"CLASSIFICATION_TYPE":"U","NORAD_CAT_ID":39166,"ELEMENT_SET_NO":999,"REV_AT_EPOCH":9484,"BSTAR":0,"MEAN_MOTION_DOT":-4.8e-7,"MEAN_MOTION_DDOT":0},{"OBJECT_NAME":"INSAT-3D","OBJECT_ID":"2013-038B","EPOCH":"2026-04-26T19:19:01.896384","MEAN_MOTION":1.00271959,"ECCENTRICITY":0.0001492,"INCLINATION":1.7951,"RA_OF_ASC_NODE":83.1552,"ARG_OF_PERICENTER":282.3894,"MEAN_ANOMALY":268.5399,"EPHEMERIS_TYPE":0,"CLASSIFICATION_TYPE":"U","NORAD_CAT_ID":39216,"ELEMENT_SET_NO":999,"REV_AT_EPOCH":4656,"BSTAR":0,"MEAN_MOTION_DOT":-3.49e-6,"MEAN_MOTION_DDOT":0},{"OBJECT_NAME":"GPS BIIF-5","OBJECT_ID":"2014-008A","EPOCH":"2026-04-25T19:59:36.749472","MEAN_MOTION":2.00556415,"ECCENTRICITY":0.00837832,"INCLINATION":53.6445,"RA_OF_ASC_NODE":151.4553,"ARG_OF_PERICENTER":230.1189,"MEAN_ANOMALY":129.2056,"EPHEMERIS_TYPE":0,"CLASSIFICATION_TYPE":"U","NORAD_CAT_ID":39533,"ELEMENT_SET_NO":999,"REV_AT_EPOCH":8863,"BSTAR":0,"MEAN_MOTION_DOT":5.1e-7,"MEAN_MOTION_DDOT":0},{"OBJECT_NAME":"LUCH 5V","OBJECT_ID":"2014-023A","EPOCH":"2026-04-26T21:25:24.341376","MEAN_MOTION":1.00271833,"ECCENTRICITY":0.0002232,"INCLINATION":5.0093,"RA_OF_ASC_NODE":70.2471,"ARG_OF_PERICENTER":339.197,"MEAN_ANOMALY":221.5602,"EPHEMERIS_TYPE":0,"CLASSIFICATION_TYPE":"U","NORAD_CAT_ID":39727,"ELEMENT_SET_NO":999,"REV_AT_EPOCH":4384,"BSTAR":0,"MEAN_MOTION_DOT":-2.76e-6,"MEAN_MOTION_DDOT":0},{"OBJECT_NAME":"GPS BIIF-6","OBJECT_ID":"2014-026A","EPOCH":"2026-04-26T02:36:49.608000","MEAN_MOTION":2.00564801,"ECCENTRICITY":0.00389488,"INCLINATION":56.5221,"RA_OF_ASC_NODE":333.5452,"ARG_OF_PERICENTER":326.6709,"MEAN_ANOMALY":33.1214,"EPHEMERIS_TYPE":0,"CLASSIFICATION_TYPE":"U","NORAD_CAT_ID":39741,"ELEMENT_SET_NO":999,"REV_AT_EPOCH":8749,"BSTAR":0,"MEAN_MOTION_DOT":-7.8e-7,"MEAN_MOTION_DDOT":0},{"OBJECT_NAME":"GPS BIIF-7","OBJECT_ID":"2014-045A","EPOCH":"2026-04-26T04:47:07.231200","MEAN_MOTION":2.00554931,"ECCENTRICITY":0.0031664,"INCLINATION":55.3199,"RA_OF_ASC_NODE":90.5347,"ARG_OF_PERICENTER":119.1386,"MEAN_ANOMALY":241.1664,"EPHEMERIS_TYPE":0,"CLASSIFICATION_TYPE":"U","NORAD_CAT_ID":40105,"ELEMENT_SET_NO":999,"REV_AT_EPOCH":8503,"BSTAR":0,"MEAN_MOTION_DOT":3.1e-7,"MEAN_MOTION_DDOT":0},{"OBJECT_NAME":"GSAT0201 (GALILEO 5)","OBJECT_ID":"2014-050A","EPOCH":"2026-04-26T03:14:49.471584","MEAN_MOTION":1.85519973,"ECCENTRICITY":0.1666333,"INCLINATION":48.9332,"RA_OF_ASC_NODE":275.567,"ARG_OF_PERICENTER":177.3572,"MEAN_ANOMALY":183.6448,"EPHEMERIS_TYPE":0,"CLASSIFICATION_TYPE":"U","NORAD_CAT_ID":40128,"ELEMENT_SET_NO":999,"REV_AT_EPOCH":7735,"BSTAR":0,"MEAN_MOTION_DOT":-6.4e-7,"MEAN_MOTION_DDOT":0},{"OBJECT_NAME":"GSAT0202 (GALILEO 6)","OBJECT_ID":"2014-050B","EPOCH":"2026-04-22T14:50:07.504224","MEAN_MOTION":1.85520499,"ECCENTRICITY":0.16668513,"INCLINATION":48.9541,"RA_OF_ASC_NODE":274.7956,"ARG_OF_PERICENTER":177.952,"MEAN_ANOMALY":182.83,"EPHEMERIS_TYPE":0,"CLASSIFICATION_TYPE":"U","NORAD_CAT_ID":40129,"ELEMENT_SET_NO":999,"REV_AT_EPOCH":7945,"BSTAR":0,"MEAN_MOTION_DOT":-2.6e-7,"MEAN_MOTION_DDOT":0},{"OBJECT_NAME":"GPS BIIF-8","OBJECT_ID":"2014-068A","EPOCH":"2026-04-26T01:45:42.554016","MEAN_MOTION":2.00572934,"ECCENTRICITY":0.00652593,"INCLINATION":56.9539,"RA_OF_ASC_NODE":32.9628,"ARG_OF_PERICENTER":68.8513,"MEAN_ANOMALY":291.847,"EPHEMERIS_TYPE":0,"CLASSIFICATION_TYPE":"U","NORAD_CAT_ID":40294,"ELEMENT_SET_NO":999,"REV_AT_EPOCH":8416,"BSTAR":0,"MEAN_MOTION_DOT":-9.8e-7,"MEAN_MOTION_DDOT":0},{"OBJECT_NAME":"GLONASS-K 2","OBJECT_ID":"2014-075A","EPOCH":"2026-04-26T05:06:37.679904","MEAN_MOTION":2.13101302,"ECCENTRICITY":0.00218133,"INCLINATION":63.614,"RA_OF_ASC_NODE":192.1706,"ARG_OF_PERICENTER":209.7479,"MEAN_ANOMALY":150.1779,"EPHEMERIS_TYPE":0,"CLASSIFICATION_TYPE":"U","NORAD_CAT_ID":40315,"ELEMENT_SET_NO":999,"REV_AT_EPOCH":8874,"BSTAR":0,"MEAN_MOTION_DOT":-1.0e-7,"MEAN_MOTION_DDOT":0},{"OBJECT_NAME":"GPS BIIF-9","OBJECT_ID":"2015-013A","EPOCH":"2026-04-25T17:01:19.193088","MEAN_MOTION":2.00554458,"ECCENTRICITY":0.0108874,"INCLINATION":53.1744,"RA_OF_ASC_NODE":206.3479,"ARG_OF_PERICENTER":39.9788,"MEAN_ANOMALY":320.8435,"EPHEMERIS_TYPE":0,"CLASSIFICATION_TYPE":"U","NORAD_CAT_ID":40534,"ELEMENT_SET_NO":999,"REV_AT_EPOCH":8077,"BSTAR":0,"MEAN_MOTION_DOT":-3.9e-7,"MEAN_MOTION_DDOT":0},{"OBJECT_NAME":"GSAT0203 (GALILEO 7)","OBJECT_ID":"2015-017A","EPOCH":"2026-04-21T21:37:17.937984","MEAN_MOTION":1.70475713,"ECCENTRICITY":0.00025466,"INCLINATION":56.8042,"RA_OF_ASC_NODE":343.1309,"ARG_OF_PERICENTER":315.4442,"MEAN_ANOMALY":44.578,"EPHEMERIS_TYPE":0,"CLASSIFICATION_TYPE":"U","NORAD_CAT_ID":40544,"ELEMENT_SET_NO":999,"REV_AT_EPOCH":6824,"BSTAR":0,"MEAN_MOTION_DOT":-8.3e-7,"MEAN_MOTION_DDOT":0},{"OBJECT_NAME":"GSAT0204 (GALILEO 8)","OBJECT_ID":"2015-017B","EPOCH":"2026-04-25T02:08:52.340352","MEAN_MOTION":1.7047548,"ECCENTRICITY":0.00015528,"INCLINATION":56.8095,"RA_OF_ASC_NODE":343.0621,"ARG_OF_PERICENTER":296.0698,"MEAN_ANOMALY":63.9535,"EPHEMERIS_TYPE":0,"CLASSIFICATION_TYPE":"U","NORAD_CAT_ID":40545,"ELEMENT_SET_NO":999,"REV_AT_EPOCH":3134,"BSTAR":0,"MEAN_MOTION_DOT":-9.0e-7,"MEAN_MOTION_DDOT":0},{"OBJECT_NAME":"GPS BIIF-10","OBJECT_ID":"2015-033A","EPOCH":"2026-04-25T08:53:03.993504","MEAN_MOTION":2.0055894,"ECCENTRICITY":0.01150064,"INCLINATION":54.0255,"RA_OF_ASC_NODE":269.2625,"ARG_OF_PERICENTER":29.884,"MEAN_ANOMALY":330.7367,"EPHEMERIS_TYPE":0,"CLASSIFICATION_TYPE":"U","NORAD_CAT_ID":40730,"ELEMENT_SET_NO":999,"REV_AT_EPOCH":7893,"BSTAR":0,"MEAN_MOTION_DOT":-3.9e-7,"MEAN_MOTION_DDOT":0},{"OBJECT_NAME":"METEOSAT-11 (MSG-4)","OBJECT_ID":"2015-034A","EPOCH":"2026-04-26T20:27:25.337376","MEAN_MOTION":1.00264149,"ECCENTRICITY":0.0001594,"INCLINATION":3.0733,"RA_OF_ASC_NODE":71.3752,"ARG_OF_PERICENTER":344.5956,"MEAN_ANOMALY":115.3076,"EPHEMERIS_TYPE":0,"CLASSIFICATION_TYPE":"U","NORAD_CAT_ID":40732,"ELEMENT_SET_NO":999,"REV_AT_EPOCH":670,"BSTAR":0,"MEAN_MOTION_DOT":5.4e-7,"MEAN_MOTION_DDOT":0},{"OBJECT_NAME":"GSAT0205 (GALILEO 9)","OBJECT_ID":"2015-045A","EPOCH":"2026-04-25T15:10:52.485888","MEAN_MOTION":1.67410754,"ECCENTRICITY":0.00051595,"INCLINATION":54.9613,"RA_OF_ASC_NODE":223.1764,"ARG_OF_PERICENTER":266.9978,"MEAN_ANOMALY":92.9342,"EPHEMERIS_TYPE":0,"CLASSIFICATION_TYPE":"U","NORAD_CAT_ID":40889,"ELEMENT_SET_NO":999,"REV_AT_EPOCH":6608,"BSTAR":0,"MEAN_MOTION_DOT":-3.8e-7,"MEAN_MOTION_DDOT":0},{"OBJECT_NAME":"GSAT0206 (GALILEO 10)","OBJECT_ID":"2015-045B","EPOCH":"2026-04-25T15:57:09.169344","MEAN_MOTION":1.70473961,"ECCENTRICITY":0.00021884,"INCLINATION":54.9612,"RA_OF_ASC_NODE":223.054,"ARG_OF_PERICENTER":38.1287,"MEAN_ANOMALY":321.8788,"EPHEMERIS_TYPE":0,"CLASSIFICATION_TYPE":"U","NORAD_CAT_ID":40890,"ELEMENT_SET_NO":999,"REV_AT_EPOCH":6614,"BSTAR":0,"MEAN_MOTION_DOT":-3.8e-7,"MEAN_MOTION_DDOT":0}]
